NORAD_CAT_ID,OBJECT_NAME,OBJECT_TYPE,EPOCH,MEAN_MOTION,ECCENTRICITY,INCLINATION,RA_OF_ASC_NODE,ARG_OF_PERICENTER,MEAN_ANOMALY,BSTAR,MEAN_MOTION_DOT,MEAN_MOTION_DDOT,TLE_LINE0,TLE_LINE1,TLE_LINE2,SEMIMAJOR_AXIS,PERIOD,APOGEE,PERIGEE,DECAYED
56768.0,STARLINK-6198,PAYLOAD,2023-08-24 19:30:22,15.69927564,0.000339,69.9991,172.8159,262.0021,98.079,1.5956e-05,1.706e-05,0.0,0 STARLINK-6198,1 56768U 23078B   23236.81276492  .00001706  00000-0  15956-4 0  9991,2 56768  69.9991 172.8159 0003390 262.0021  98.0790 15.69927564 13739,6737.241,91.724,361.39,356.822,0.0
56768.0,STARLINK-6198,PAYLOAD,2023-08-25 04:40:53,15.69920025,0.0003277,69.9992,171.7416,259.8172,100.2654,1.382e-06,-4.7e-07,0.0,0 STARLINK-6198,1 56768U 23078B   23237.19506869 -.00000047  00000-0  13820-5 0  9994,2 56768  69.9992 171.7416 0003277 259.8172 100.2654 15.69920025 13795,6737.263,91.724,361.336,356.92,0.0
56768.0,STARLINK-6198,PAYLOAD,2023-08-26 05:08:55,15.69925521,0.0003318,69.9993,168.8744,264.4422,95.6395,2.1557e-05,2.38e-05,0.0,0 STARLINK-6198,1 56768U 23078B   23238.21453613  .00002380  00000-0  21557-4 0  9992,2 56768  69.9993 168.8744 0003318 264.4422  95.6395 15.69925521 13956,6737.247,91.724,361.348,356.877,0.0
56768.0,STARLINK-6198,PAYLOAD,2023-08-26 20:26:26,15.69935117,0.0003559,69.9993,167.0828,265.4188,94.6601,2.0253e-05,2.224e-05,0.0,0 STARLINK-6198,1 56768U 23078B   23238.85169661  .00002224  00000-0  20253-4 0  9998,2 56768  69.9993 167.0828 0003559 265.4188  94.6601 15.69935117 13790,6737.22,91.724,361.482,356.687,0.0
56768.0,STARLINK-6198,PAYLOAD,2023-08-26 23:29:57,15.69918211,0.0003697,69.9967,166.7218,270.6633,89.4139,-1.953e-05,-2.56e-05,0.0,0 STARLINK-6198,1 56768U 23078B   23238.97913521 -.00002560  00000-0 -19530-4 0  9994,2 56768  69.9967 166.7218 0003697 270.6633  89.4139 15.69918211 14072,6737.268,91.725,361.624,356.642,0.0
56768.0,STARLINK-6198,PAYLOAD,2023-08-27 04:05:12,15.6991628,0.0003084,69.9995,166.1876,258.1842,101.9008,-1.5404e-05,-2.064e-05,0.0,0 STARLINK-6198,1 56768U 23078B   23239.17028911 -.00002064  00000-0 -15404-4 0  9992,2 56768  69.9995 166.1876 0003084 258.1842 101.9008 15.69916280 13843,6737.274,91.725,361.216,357.061,0.0
56768.0,STARLINK-6198,PAYLOAD,2023-08-27 20:54:29,15.69924895,0.0003186,69.9999,164.2175,262.2872,97.7962,2.5018e-05,2.797e-05,0.0,0 STARLINK-6198,1 56768U 23078B   23239.87117022  .00002797  00000-0  25018-4 0  9994,2 56768  69.9999 164.2175 0003186 262.2872  97.7962 15.69924895 13954,6737.249,91.724,361.26,356.967,0.0
56768.0,STARLINK-6198,PAYLOAD,2023-08-28 04:33:14,15.69920285,0.0003241,69.9993,163.3202,262.7274,97.3554,1.2741e-05,1.319e-05,0.0,0 STARLINK-6198,1 56768U 23078B   23240.18975663  .00001319  00000-0  12741-4 0  9991,2 56768  69.9993 163.3202 0003241 262.7274  97.3554 15.69920285 14269,6737.262,91.724,361.311,356.944,0.0
56768.0,STARLINK-6198,PAYLOAD,2023-08-28 12:12:00,15.69931032,0.0003438,69.9995,162.4246,266.8107,93.2695,1.5087e-05,1.602e-05,0.0,0 STARLINK-6198,1 56768U 23078B   23240.50833377  .00001602  00000-0  15087-4 0  9993,2 56768  69.9995 162.4246 0003438 266.8107  93.2695 15.69931032 14316,6737.231,91.724,361.413,356.78,0.0
56768.0,STARLINK-6198,PAYLOAD,2023-08-28 21:22:30,15.69926227,0.0003477,69.9998,161.3503,265.2861,94.7938,7.3197e-06,6.67e-06,0.0,0 STARLINK-6198,1 56768U 23078B   23240.89063563  .00000667  00000-0  73197-5 0  9994,2 56768  69.9998 161.3503 0003477 265.2861  94.7938 15.69926227 14110,6737.245,91.724,361.453,356.768,0.0
56768.0,STARLINK-6198,PAYLOAD,2023-08-29 05:01:16,15.69926017,0.0003472,69.9999,160.4547,266.0865,93.9934,1.6426e-05,1.763e-05,0.0,0 STARLINK-6198,1 56768U 23078B   23241.20921992  .00001763  00000-0  16426-4 0  9998,2 56768  69.9999 160.4547 0003472 266.0865  93.9934 15.69926017 14425,6737.246,91.724,361.45,356.771,0.0
56768.0,STARLINK-6198,PAYLOAD,2023-08-30 03:57:33,15.69929167,0.0003377,69.9997,157.7667,269.3132,90.7677,3.2266e-05,3.669e-05,0.0,0 STARLINK-6198,1 56768U 23078B   23242.16497150  .00003669  00000-0  32266-4 0  9995,2 56768  69.9997 157.7667 0003377 269.3132  90.7677 15.69929167 14318,6737.237,91.724,361.377,356.826,0.0
56768.0,STARLINK-6198,PAYLOAD,2023-08-30 22:18:35,15.69925391,0.0003269,69.9996,155.617,264.2247,95.8576,1.3965e-05,1.467e-05,0.0,0 STARLINK-6198,1 56768U 23078B   23242.92957218  .00001467  00000-0  13965-4 0  9994,2 56768  69.9996 155.6170 0003269 264.2247  95.8576 15.69925391 14694,6737.247,91.724,361.315,356.91,0.0
56768.0,STARLINK-6198,PAYLOAD,2023-08-31 04:25:35,15.69924862,0.0003295,69.9994,154.9008,264.8695,95.2125,1.541e-05,1.641e-05,0.0,0 STARLINK-6198,1 56768U 23078B   23243.18444044  .00001641  00000-0  15410-4 0  9992,2 56768  69.9994 154.9008 0003295 264.8695  95.2125 15.69924862 14478,6737.249,91.724,361.334,356.894,0.0
56768.0,STARLINK-6198,PAYLOAD,2023-09-01 11:01:05,15.68915849,0.0009257,69.9975,151.3211,234.3227,125.7107,-0.002742,-0.00306064,0.0,0 STARLINK-6198,1 56768U 23078B   23244.45909547 -.00306064  00000-0 -27420-2 0  9998,2 56768  69.9975 151.3211 0009257 234.3227 125.7107 15.68915849 14935,6740.137,91.783,368.242,355.763,0.0
56768.0,STARLINK-6198,PAYLOAD,2023-09-01 20:00:01,15.69949934,0.0003477,69.9999,150.2656,266.5763,49.8265,-0.00038786,-0.00046643,0.0,0 STARLINK-6198,1 56768U 23078B   23244.83334491 -.00046643  00000-0 -38786-3 0  9992,2 56768  69.9999 150.2656 0003477 266.5763  49.8265 15.69949934 14992,6737.177,91.723,361.385,356.7,0.0
56768.0,STARLINK-6198,PAYLOAD,2023-09-01 22:00:00,15.69948639,0.000349,69.9997,150.0313,268.223,159.0183,-0.0004805,-0.00057654,0.0,0 STARLINK-6198,1 56768U 23078B   23244.91667824 -.00057654  00000-0 -48050-3 0  9999,2 56768  69.9997 150.0313 0003490 268.2230 159.0183 15.69948639  5850,6737.181,91.723,361.397,356.695,0.0
56768.0,STARLINK-6198,PAYLOAD,2023-09-02 03:49:54,15.69919866,0.0003334,69.999,149.3474,271.0671,89.0143,-2.0201e-06,-4.56e-06,0.0,0 STARLINK-6198,1 56768U 23078B   23245.15966006 -.00000456  00000-0 -20201-5 0  9998,2 56768  69.9990 149.3474 0003334 271.0671  89.0143 15.69919866 15040,6737.263,91.724,361.374,356.882,0.0
56768.0,STARLINK-6198,PAYLOAD,2023-09-02 19:07:25,15.69935953,0.0003399,69.999,147.5558,266.9745,93.1061,3.9821e-05,4.58e-05,0.0,0 STARLINK-6198,1 56768U 23078B   23245.79681808  .00004580  00000-0  39821-4 0  9999,2 56768  69.9990 147.5558 0003399 266.9745  93.1061 15.69935953 14880,6737.217,91.723,361.372,356.792,0.0
56768.0,STARLINK-6198,PAYLOAD,2023-09-02 23:42:40,15.69929331,0.0004025,69.9984,147.0193,260.611,99.4631,2.4248e-05,2.704e-05,0.0,0 STARLINK-6198,1 56768U 23078B   23245.98797063  .00002704  00000-0  24248-4 0  9994,2 56768  69.9984 147.0193 0004025 260.6110  99.4631 15.69929331 15175,6737.236,91.724,361.813,356.389,0.0
56768.0,STARLINK-6198,PAYLOAD,2023-09-03 10:24:57,15.69917527,0.0003547,69.9985,145.7652,261.9533,98.126,-2.0049e-06,-4.54e-06,0.0,0 STARLINK-6198,1 56768U 23078B   23246.43399642 -.00000454  00000-0 -20049-5 0  9994,2 56768  69.9985 145.7652 0003547 261.9533  98.1260 15.69917527 15248,6737.27,91.725,361.525,356.745,0.0
56768.0,STARLINK-6198,PAYLOAD,2023-09-04 10:52:59,15.69929957,0.0003308,69.9995,142.8985,270.9794,89.1022,2.8999e-05,3.276e-05,0.0,0 STARLINK-6198,1 56768U 23078B   23247.45346188  .00003276  00000-0  28999-4 0  9998,2 56768  69.9995 142.8985 0003308 270.9794  89.1022 15.69929957 15145,6737.234,91.724,361.328,356.871,0.0
56768.0,STARLINK-6198,PAYLOAD,2023-09-05 03:42:15,15.69929147,0.0003477,69.9986,140.928,267.8808,92.1989,3.2877e-05,3.743e-05,0.0,0 STARLINK-6198,1 56768U 23078B   23248.15434502  .00003743  00000-0  32877-4 0  9993,2 56768  69.9986 140.9280 0003477 267.8808  92.1989 15.69929147 15259,6737.237,91.724,361.444,356.759,0.0
56768.0,STARLINK-6198,PAYLOAD,2023-09-06 02:38:32,15.69927565,0.0003291,69.9987,138.2406,267.5628,92.5191,1.7728e-05,1.92e-05,0.0,0 STARLINK-6198,1 56768U 23078B   23249.11009678  .00001920  00000-0  17728-4 0  9995,2 56768  69.9987 138.2406 0003291 267.5628  92.5191 15.69927565 15667,6737.241,91.724,361.323,356.889,0.0
56768.0,STARLINK-6198,PAYLOAD,2023-09-07 21:27:36,15.6991864,0.0003608,69.9983,133.2249,274.027,86.0513,3.1193e-06,1.62e-06,0.0,0 STARLINK-6198,1 56768U 23078B   23250.89416910  .00000162  00000-0  31193-5 0  9993,2 56768  69.9983 133.2249 0003608 274.0270  86.0513 15.69918640 15683,6737.267,91.724,361.563,356.701,0.0
56768.0,STARLINK-6198,PAYLOAD,2023-09-08 02:02:51,15.69928064,0.0003608,69.9983,132.6876,274.3253,85.753,2.1962e-05,2.429e-05,0.0,0 STARLINK-6198,1 56768U 23078B   23251.08531554  .00002429  00000-0  21962-4 0  9997,2 56768  69.9983 132.6876 0003608 274.3253  85.7530 15.69928064 15974,6737.24,91.724,361.536,356.674,0.0
56768.0,STARLINK-6198,PAYLOAD,2023-09-08 08:09:52,15.69916851,0.0003683,69.9986,131.9709,271.4905,88.5869,-1.33e-05,-1.811e-05,0.0,0 STARLINK-6198,1 56768U 23078B   23251.34018630 -.00001811  00000-0 -13300-4 0  9994,2 56768  69.9986 131.9709 0003683 271.4905  88.5869 15.69916851 16012,6737.272,91.725,361.618,356.656,0.0
56768.0,STARLINK-6198,PAYLOAD,2023-09-08 12:45:06,15.69929037,0.0003257,69.9989,131.4332,259.3871,100.6958,3.3629e-05,3.833e-05,0.0,0 STARLINK-6198,1 56768U 23078B   23251.53133089  .00003833  00000-0  33629-4 0  9991,2 56768  69.9989 131.4332 0003257 259.3871 100.6958 15.69929037 15784,6737.237,91.724,361.296,356.908,0.0
56768.0,STARLINK-6198,PAYLOAD,2023-09-08 18:52:07,15.69929476,0.0003582,69.9988,130.7168,269.8171,90.2614,2.5705e-05,2.88e-05,0.0,0 STARLINK-6198,1 56768U 23078B   23251.78619861  .00002880  00000-0  25705-4 0  9992,2 56768  69.9988 130.7168 0003582 269.8171  90.2614 15.69929476 16086,6737.236,91.724,361.514,356.687,0.0
56768.0,STARLINK-6198,PAYLOAD,2023-09-09 10:09:38,15.69923175,0.000367,69.9991,128.9253,268.5372,91.5403,1.0885e-05,1.096e-05,0.0,0 STARLINK-6198,1 56768U 23078B   23252.42336669  .00001096  00000-0  10885-4 0  9997,2 56768  69.9991 128.9253 0003670 268.5372  91.5403 15.69923175 16182,6737.254,91.724,361.591,356.646,0.0
